NORAD_CAT_ID,OBJECT_NAME,OBJECT_TYPE,EPOCH,MEAN_MOTION,ECCENTRICITY,INCLINATION,RA_OF_ASC_NODE,ARG_OF_PERICENTER,MEAN_ANOMALY,BSTAR,MEAN_MOTION_DOT,MEAN_MOTION_DDOT,TLE_LINE0,TLE_LINE1,TLE_LINE2,SEMIMAJOR_AXIS,PERIOD,APOGEE,PERIGEE,DECAYED
53981.0,STARLINK-5149,PAYLOAD,2023-07-27 07:08:43,15.08840537,0.0001191,53.2166,177.3062,88.6022,271.5107,0.00010847,1.439e-05,0.0,0 STARLINK-5149,1 53981U 22125T   23208.29772090  .00001439  00000-0  10847-3 0  9999,2 53981  53.2166 177.3062 0001191  88.6022 271.5107 15.08840537 45299,6917.879,95.438,540.568,538.92,0.0
53981.0,STARLINK-5149,PAYLOAD,2023-07-27 15:05:39,15.08832878,0.0001371,53.216,175.8199,82.7618,277.353,3.5142e-05,2.71e-06,0.0,0 STARLINK-5149,1 53981U 22125T   23208.62892968  .00000271  00000-0  35142-4 0  9992,2 53981  53.2160 175.8199 0001371  82.7618 277.3530 15.08832878 45342,6917.902,95.438,540.716,538.819,0.0
53981.0,STARLINK-5149,PAYLOAD,2023-07-27 21:27:12,15.08831669,0.0001415,53.215,174.6321,82.9521,277.1632,3.3803e-05,2.5e-06,0.0,0 STARLINK-5149,1 53981U 22125T   23208.89389163  .00000250  00000-0  33803-4 0  9998,2 53981  53.2150 174.6321 0001415  82.9521 277.1632 15.08831669 45314,6917.906,95.438,540.75,538.792,0.0
53981.0,STARLINK-5149,PAYLOAD,2023-07-27 23:02:35,15.08828876,0.0001148,53.2164,174.3334,83.7178,276.3945,-6.6521e-05,-1.346e-05,0.0,0 STARLINK-5149,1 53981U 22125T   23208.96013707 -.00001346  00000-0 -66521-4 0  9996,2 53981  53.2164 174.3334 0001148  83.7178 276.3945 15.08828876 45392,6917.914,95.438,540.574,538.985,0.0
53981.0,STARLINK-5149,PAYLOAD,2023-07-28 06:59:31,15.08832029,0.0001164,53.2165,172.8465,82.9672,277.1452,-3.5522e-05,-8.53e-06,0.0,0 STARLINK-5149,1 53981U 22125T   23209.29133580 -.00000853  00000-0 -35522-4 0  9994,2 53981  53.2165 172.8465 0001164  82.9672 277.1452 15.08832029 45374,6917.905,95.438,540.575,538.965,0.0
53981.0,STARLINK-5149,PAYLOAD,2023-07-28 14:56:26,15.08838491,0.0001154,53.2168,171.3603,82.34,277.7723,2.3502e-05,8.6e-07,0.0,0 STARLINK-5149,1 53981U 22125T   23209.62253056  .00000086  00000-0  23502-4 0  9993,2 53981  53.2168 171.3603 0001154  82.3400 277.7723 15.08838491 45496,6917.885,95.438,540.548,538.952,0.0
53981.0,STARLINK-5149,PAYLOAD,2023-07-29 03:39:30,15.0886331,0.0001318,53.2167,168.9811,73.9291,286.1846,-8.8017e-05,-1.689e-05,0.0,0 STARLINK-5149,1 53981U 22125T   23210.15244169 -.00001689  00000-0 -88017-4 0  9992,2 53981  53.2167 168.9811 0001318  73.9291 286.1846 15.08863310 45571,6917.809,95.436,540.586,538.762,0.0
53981.0,STARLINK-5149,PAYLOAD,2023-07-30 01:54:55,15.08836853,0.0001263,53.2167,164.8189,78.2265,281.8868,0.00015352,2.156e-05,0.0,0 STARLINK-5149,1 53981U 22125T   23211.07980888  .00002156  00000-0  15352-3 0  9998,2 53981  53.2167 164.8189 0001263  78.2265 281.8868 15.08836853 45716,6917.89,95.438,540.629,538.881,0.0
53981.0,STARLINK-5149,PAYLOAD,2023-07-31 01:45:41,15.08873022,0.0001369,53.2168,160.359,70.2091,289.9048,-0.00041603,-6.909e-05,0.0,0 STARLINK-5149,1 53981U 22125T   23212.07339759 -.00006909  00000-0 -41603-3 0  9994,2 53981  53.2168 160.3590 0001369  70.2091 289.9048 15.08873022 45864,6917.779,95.435,540.591,538.697,0.0
53981.0,STARLINK-5149,PAYLOAD,2023-07-31 03:21:05,15.08848028,0.0001237,53.2165,160.0595,93.7759,266.3375,6.4838e-06,-1.85e-06,0.0,0 STARLINK-5149,1 53981U 22125T   23212.13964375 -.00000185  00000-0  64838-5 0  9995,2 53981  53.2165 160.0595 0001237  93.7759 266.3375 15.08848028 45879,6917.856,95.437,540.577,538.865,0.0
53981.0,STARLINK-5149,PAYLOAD,2023-08-01 03:11:52,15.08837103,0.0001228,53.2165,155.599,99.3474,260.7657,-1.5077e-05,-5.28e-06,0.0,0 STARLINK-5149,1 53981U 22125T   23213.13325165 -.00000528  00000-0 -15077-4 0  9996,2 53981  53.2165 155.5990 0001228  99.3474 260.7657 15.08837103 46024,6917.889,95.438,540.604,538.905,0.0
53981.0,STARLINK-5149,PAYLOAD,2023-08-02 12:34:58,15.08842603,0.0001173,53.2166,149.3552,94.4193,265.6933,1.3964e-05,-6.6e-07,0.0,0 STARLINK-5149,1 53981U 22125T   23214.52429127 -.00000066  00000-0  13964-4 0  9992,2 53981  53.2166 149.3552 0001173  94.4193 265.6933 15.08842603 46238,6917.872,95.437,540.549,538.926,0.0
53981.0,STARLINK-5149,PAYLOAD,2023-08-04 02:44:14,15.08839143,0.0001166,53.2169,142.2187,73.3621,286.7499,4.1231e-05,3.68e-06,0.0,0 STARLINK-5149,1 53981U 22125T   23216.11405957  .00000368  00000-0  41231-4 0  9996,2 53981  53.2169 142.2187 0001166  73.3621 286.7499 15.08839143 46473,6917.883,95.438,540.555,538.941,0.0
53981.0,STARLINK-5149,PAYLOAD,2023-08-05 04:10:24,15.08848088,0.0001056,53.2168,137.4601,101.5816,258.5295,0.00013162,1.808e-05,0.0,0 STARLINK-5149,1 53981U 22125T   23217.17389123  .00001808  00000-0  13162-3 0  9990,2 53981  53.2168 137.4601 0001056 101.5816 258.5295 15.08848088 46634,6917.856,95.437,540.451,538.99,0.0
53981.0,STARLINK-5149,PAYLOAD,2023-08-06 11:58:07,15.08835169,0.0001182,53.2175,131.5118,91.0786,269.0341,3.8639e-05,3.27e-06,0.0,0 STARLINK-5149,1 53981U 22125T   23218.49869945  .00000327  00000-0  38639-4 0  9993,2 53981  53.2175 131.5118 0001182  91.0786 269.0341 15.08835169 46836,6917.895,95.438,540.578,538.942,0.0
53981.0,STARLINK-5149,PAYLOAD,2023-08-07 00:41:14,15.08823001,0.0001077,53.2171,129.1341,88.1242,271.9874,-0.00018648,-3.253e-05,0.0,0 STARLINK-5149,1 53981U 22125T   23219.02863766 -.00003253  00000-0 -18648-3 0  9998,2 53981  53.2171 129.1341 0001077  88.1242 271.9874 15.08823001 46914,6917.932,95.439,540.542,539.052,0.0
53981.0,STARLINK-5149,PAYLOAD,2023-08-08 00:31:59,15.08849594,0.0001107,53.217,124.675,74.821,285.2905,4.6156e-06,-2.14e-06,0.0,0 STARLINK-5149,1 53981U 22125T   23220.02221953 -.00000214  00000-0  46156-5 0  9996,2 53981  53.2170 124.6750 0001107  74.8210 285.2905 15.08849594 47063,6917.851,95.437,540.482,538.95,0.0
53981.0,STARLINK-5149,PAYLOAD,2023-08-08 03:42:45,15.08856133,0.0001161,53.2171,124.0796,76.4733,283.6388,4.5174e-05,4.31e-06,0.0,0 STARLINK-5149,1 53981U 22125T   23220.15469453  .00000431  00000-0  45174-4 0  9997,2 53981  53.2171 124.0796 0001161  76.4733 283.6388 15.08856133 47082,6917.831,95.437,540.499,538.893,0.0
53981.0,STARLINK-5149,PAYLOAD,2023-08-08 21:12:00,15.08836496,0.0001493,53.2172,120.8092,60.9495,299.1646,0.00034137,5.149e-05,0.0,0 STARLINK-5149,1 53981U 22125T   23220.88334211  .00005149  00000-0  34137-3 0  9997,2 53981  53.2172 120.8092 0001493  60.9495 299.1646 15.08836496 47198,6917.891,95.438,540.789,538.723,0.0
53981.0,STARLINK-5149,PAYLOAD,2023-08-09 19:27:25,15.08838985,0.0001347,53.2153,116.6472,86.6437,273.4709,-0.00013772,-2.479e-05,0.0,0 STARLINK-5149,1 53981U 22125T   23221.81071280 -.00002479  00000-0 -13772-3 0  9992,2 53981  53.2153 116.6472 0001347  86.6437 273.4709 15.08838985 47337,6917.883,95.438,540.68,538.817,0.0
53981.0,STARLINK-5149,PAYLOAD,2023-08-10 11:21:16,15.08835729,0.0001426,53.2152,113.6737,78.5802,281.535,0.00012782,1.747e-05,0.0,0 STARLINK-5149,1 53981U 22125T   23222.47310665  .00001747  00000-0  12782-3 0  9993,2 53981  53.2152 113.6737 0001426  78.5802 281.5350 15.08835729 47437,6917.893,95.438,540.745,538.772,0.0
53981.0,STARLINK-5149,PAYLOAD,2023-08-10 19:18:11,15.08880534,0.000168,53.2157,112.1872,105.5643,254.5535,-0.00058194,-9.548e-05,0.0,0 STARLINK-5149,1 53981U 22125T   23222.80430027 -.00009548  00000-0 -58194-3 0  9991,2 53981  53.2157 112.1872 0001680 105.5643 254.5535 15.08880534 47486,6917.756,95.435,540.784,538.459,0.0
53981.0,STARLINK-5149,PAYLOAD,2023-08-11 09:36:39,15.08835379,0.0001247,53.2161,109.5104,90.4745,269.639,0.00012215,1.656e-05,0.0,0 STARLINK-5149,1 53981U 22125T   23223.40046231  .00001656  00000-0  12215-3 0  9992,2 53981  53.2161 109.5104 0001247  90.4745 269.6390 15.08835379 47576,6917.895,95.438,540.622,538.897,0.0
53981.0,STARLINK-5149,PAYLOAD,2023-08-12 15:48:59,15.08830648,0.000135,53.2148,103.8574,101.9012,258.2132,0.00013925,1.928e-05,0.0,0 STARLINK-5149,1 53981U 22125T   23224.65902689  .00001928  00000-0  13925-3 0  9999,2 53981  53.2148 103.8574 0001350 101.9012 258.2132 15.08830648 47762,6917.909,95.438,540.708,538.84,0.0
53981.0,STARLINK-5149,PAYLOAD,2023-08-13 22:01:19,15.08840355,9.94e-05,53.2167,98.2101,89.8457,270.2649,7.7482e-05,9.46e-06,0.0,0 STARLINK-5149,1 53981U 22125T   23225.91758418  .00000946  00000-0  77482-4 0  9996,2 53981  53.2167  98.2101 0000994  89.8457 270.2649 15.08840355 47950,6917.879,95.438,540.432,539.057,0.0
53981.0,STARLINK-5149,PAYLOAD,2023-08-15 16:56:44,15.08836269,0.0001137,53.2162,90.1797,110.0168,250.0947,2.2864e-06,-2.51e-06,0.0,0 STARLINK-5149,1 53981U 22125T   23227.70606824 -.00000251  00000-0  22864-5 0  9993,2 53981  53.2162  90.1797 0001137 110.0168 250.0947 15.08836269 48220,6917.892,95.438,540.543,538.97,0.0
53981.0,STARLINK-5149,PAYLOAD,2023-08-16 21:33:40,15.08836142,9.29e-05,53.2168,84.8287,90.2881,269.8218,2.1926e-05,6.1e-07,0.0,0 STARLINK-5149,1 53981U 22125T   23228.89838931  .00000061  00000-0  21926-4 0  9995,2 53981  53.2168  84.8287 0000929  90.2881 269.8218 15.08836142 48408,6917.892,95.438,540.4,539.115,0.0
53981.0,STARLINK-5149,PAYLOAD,2023-08-17 22:59:50,15.08844745,0.0001036,53.2173,80.0695,81.8099,278.3011,8.6956e-05,1.097e-05,0.0,0 STARLINK-5149,1 53981U 22125T   23229.95822308  .00001097  00000-0  86956-4 0  9998,2 53981  53.2173  80.0695 0001036  81.8099 278.3011 15.08844745 48563,6917.866,95.437,540.448,539.014,0.0
53981.0,STARLINK-5149,PAYLOAD,2023-08-18 08:32:10,15.08833941,0.0001483,53.2144,78.2846,92.6703,267.4458,2.3702e-05,8.9e-07,0.0,0 STARLINK-5149,1 53981U 22125T   23230.35567198  .00000089  00000-0  23702-4 0  9997,2 53981  53.2144  78.2846 0001483  92.6703 267.4458 15.08833941 48623,6917.899,95.438,540.79,538.738,0.0
53981.0,STARLINK-5149,PAYLOAD,2023-08-18 16:29:06,15.08823404,0.0001673,53.2153,76.7987,91.6752,268.4431,5.9169e-05,6.53e-06,0.0,0 STARLINK-5149,1 53981U 22125T   23230.68687898  .00000653  00000-0  59169-4 0  9996,2 53981  53.2153  76.7987 0001673  91.6752 268.4431 15.08823404 48676,6917.931,95.439,540.953,538.639,0.0
